[{"OBJECT_NAME":"STARLINK-34701","OBJECT_ID":"2025-158X","EPOCH":"2026-03-09T13:58:41.940768","MEAN_MOTION":15.05648745,"ECCENTRICITY":0.0001818,"INCLINATION":97.602,"RA_OF_ASC_NODE":294.0414,"ARG_OF_PERICENTER":77.0998,"MEAN_ANOMALY":283.0432,"EPHEMERIS_TYPE":0,"CLASSIFICATION_TYPE":"U","NORAD_CAT_ID":64953,"ELEMENT_SET_NO":999,"REV_AT_EPOCH":3534,"BSTAR":0.00015816,"MEAN_MOTION_DOT":2.222e-5,"MEAN_MOTION_DDOT":0},{"OBJECT_NAME":"SL-12 R\/B(AUX MOTOR)","OBJECT_ID":"1991-025G","EPOCH":"2026-03-09T11:32:32.182656","MEAN_MOTION":6.61283783,"ECCENTRICITY":0.44439442,"INCLINATION":64.5256,"RA_OF_ASC_NODE":118.4736,"ARG_OF_PERICENTER":39.0135,"MEAN_ANOMALY":345.9259,"EPHEMERIS_TYPE":0,"CLASSIFICATION_TYPE":"U","NORAD_CAT_ID":21226,"ELEMENT_SET_NO":999,"REV_AT_EPOCH":65726,"BSTAR":0.0019120533,"MEAN_MOTION_DOT":0.00021136,"MEAN_MOTION_DDOT":0}]
